ONEWEB-0273             
1 48991U 21060AA  26015.08130789 -.00000018  00000+0 -79538-4 0  9996
2 48991  87.9030 259.2668 0001324  74.7482 285.3795 13.16595202219443
ONEWEB-0274             
1 48992U 21060AB  26015.10663461  .00000112  00000+0  25926-3 0  9992
2 48992  87.9018 259.2807 0001738  71.1994 288.9325 13.16595162219480
ONEWEB-0275             
1 48993U 21060AC  26015.09554969 -.00000030  00000+0 -11193-3 0  9995
2 48993  87.9028 259.2571 0001453  73.9178 286.2113 13.16594810219416
ONEWEB-0276             
1 48994U 21060AD  26015.12880191  .00000167  00000+0  40355-3 0  9990
2 48994  87.9030 259.2500 0001273  80.6139 279.5136 13.16594564219432
ONEWEB-0277             
1 48995U 21060AE  26015.06545610  .00000035  00000+0  57063-4 0  9997
2 48995  87.9021 259.2837 0001463  75.8371 284.2922 13.16596523219412
ONEWEB-0278             
1 48996U 21060AF  26015.13197000  .00000154  00000+0  36914-3 0  9995
2 48996  87.9030 259.2459 0001498  87.1955 272.9348 13.16595107219553
ONEWEB-0279             
1 48997U 21060AG  26015.06388531  .00000004  00000+0 -22831-4 0  9998
2 48997  87.9033 259.2579 0001433  66.1416 293.9865 13.16595245219479
ONEWEB-0280             
1 48998U 21060AH  26014.24295347  .00000031  00000+0  46777-4 0  9994
2 48998  87.9032 259.4273 0001141  84.4173 275.7088 13.16593511219302
ONEWEB-0281             
1 48999U 21060AJ  26015.08447596 -.00000136  00000+0 -38888-3 0  9994
2 48999  87.9032 259.2547 0001599  76.1994 283.9315 13.16594571219481
ONEWEB-0282             
1 49000U 21060AK  26015.11455031  .00000111  00000+0  25544-3 0  9991
2 49000  87.9029 259.2592 0001320  76.2944 283.8333 13.16594616219466
ONEWEB-0283             
1 49001U 21060AL  26015.10346788  .00000061  00000+0  12546-3 0  9991
2 49001  87.9027 259.2616 0001406  71.6075 288.5209 13.16595249219479
ONEWEB-0284             
1 49002U 21060AM  26015.09713679  .00000011  00000+0 -39524-5 0  9990
2 49002  87.9032 259.2530 0001255  91.3222 268.8052 13.16594368219452
ONEWEB-0285             
1 49075U 21075A   26014.97532391 -.00000090  00000+0 -28561-3 0  9997
2 49075  87.8927  21.0801 0001735  90.5532 269.5795 13.12442217215110
ONEWEB-0286             
1 49076U 21075B   26015.03434708 -.00000392  00000+0 -11250-2 0  9990
2 49076  87.8921  21.0995 0001959  90.9612 269.1741 13.12443110214478
ONEWEB-0287             
1 49077U 21075C   26015.00340887  .00000089  00000+0  19616-3 0  9998
2 49077  87.9090  36.3139 0002223  99.5077 260.6306 13.17648476213458
ONEWEB-0288             
1 49078U 21075D   26015.08700271  .00000315  00000+0  83935-3 0  9991
2 49078  87.8927  21.0529 0001749  93.0592 267.0737 13.12444161215107
ONEWEB-0289             
1 49079U 21075E   26015.11799990  .00000792  00000+0  20074-2 0  9995
2 49079  87.9084  36.3037 0001583 102.3000 257.8309 13.17659739214048
