[{"OBJECT_NAME":"ONEWEB-0273","OBJECT_ID":"2021-060AA","EPOCH":"2026-01-15T01:57:05.001696","MEAN_MOTION":13.16595202,"ECCENTRICITY":0.0001324,"INCLINATION":87.903,"RA_OF_ASC_NODE":259.2668,"ARG_OF_PERICENTER":74.7482,"MEAN_ANOMALY":285.3795,"EPHEMERIS_TYPE":0,"CLASSIFICATION_TYPE":"U","NORAD_CAT_ID":48991,"ELEMENT_SET_NO":999,"REV_AT_EPOCH":21944,"BSTAR":-7.9538e-5,"MEAN_MOTION_DOT":-1.8e-7,"MEAN_MOTION_DDOT":0},{"OBJECT_NAME":"ONEWEB-0274","OBJECT_ID":"2021-060AB","EPOCH":"2026-01-15T02:33:33.230304","MEAN_MOTION":13.16595162,"ECCENTRICITY":0.0001738,"INCLINATION":87.9018,"RA_OF_ASC_NODE":259.2807,"ARG_OF_PERICENTER":71.1994,"MEAN_ANOMALY":288.9325,"EPHEMERIS_TYPE":0,"CLASSIFICATION_TYPE":"U","NORAD_CAT_ID":48992,"ELEMENT_SET_NO":999,"REV_AT_EPOCH":21948,"BSTAR":0.00025926,"MEAN_MOTION_DOT":1.12e-6,"MEAN_MOTION_DDOT":0},{"OBJECT_NAME":"ONEWEB-0275","OBJECT_ID":"2021-060AC","EPOCH":"2026-01-15T02:17:35.493216","MEAN_MOTION":13.1659481,"ECCENTRICITY":0.0001453,"INCLINATION":87.9028,"RA_OF_ASC_NODE":259.2571,"ARG_OF_PERICENTER":73.9178,"MEAN_ANOMALY":286.2113,"EPHEMERIS_TYPE":0,"CLASSIFICATION_TYPE":"U","NORAD_CAT_ID":48993,"ELEMENT_SET_NO":999,"REV_AT_EPOCH":21941,"BSTAR":-0.00011193,"MEAN_MOTION_DOT":-3.0e-7,"MEAN_MOTION_DDOT":0},{"OBJECT_NAME":"ONEWEB-0276","OBJECT_ID":"2021-060AD","EPOCH":"2026-01-15T03:05:28.485024","MEAN_MOTION":13.16594564,"ECCENTRICITY":0.0001273,"INCLINATION":87.903,"RA_OF_ASC_NODE":259.25,"ARG_OF_PERICENTER":80.6139,"MEAN_ANOMALY":279.5136,"EPHEMERIS_TYPE":0,"CLASSIFICATION_TYPE":"U","NORAD_CAT_ID":48994,"ELEMENT_SET_NO":999,"REV_AT_EPOCH":21943,"BSTAR":0.00040355,"MEAN_MOTION_DOT":1.67e-6,"MEAN_MOTION_DDOT":0},{"OBJECT_NAME":"ONEWEB-0277","OBJECT_ID":"2021-060AE","EPOCH":"2026-01-15T01:34:15.407040","MEAN_MOTION":13.16596523,"ECCENTRICITY":0.0001463,"INCLINATION":87.9021,"RA_OF_ASC_NODE":259.2837,"ARG_OF_PERICENTER":75.8371,"MEAN_ANOMALY":284.2922,"EPHEMERIS_TYPE":0,"CLASSIFICATION_TYPE":"U","NORAD_CAT_ID":48995,"ELEMENT_SET_NO":999,"REV_AT_EPOCH":21941,"BSTAR":5.7063e-5,"MEAN_MOTION_DOT":3.5e-7,"MEAN_MOTION_DDOT":0},{"OBJECT_NAME":"ONEWEB-0278","OBJECT_ID":"2021-060AF","EPOCH":"2026-01-15T03:10:02.208000","MEAN_MOTION":13.16595107,"ECCENTRICITY":0.0001498,"INCLINATION":87.903,"RA_OF_ASC_NODE":259.2459,"ARG_OF_PERICENTER":87.1955,"MEAN_ANOMALY":272.9348,"EPHEMERIS_TYPE":0,"CLASSIFICATION_TYPE":"U","NORAD_CAT_ID":48996,"ELEMENT_SET_NO":999,"REV_AT_EPOCH":21955,"BSTAR":0.00036914,"MEAN_MOTION_DOT":1.54e-6,"MEAN_MOTION_DDOT":0},{"OBJECT_NAME":"ONEWEB-0279","OBJECT_ID":"2021-060AG","EPOCH":"2026-01-15T01:31:59.690784","MEAN_MOTION":13.16595245,"ECCENTRICITY":0.0001433,"INCLINATION":87.9033,"RA_OF_ASC_NODE":259.2579,"ARG_OF_PERICENTER":66.1416,"MEAN_ANOMALY":293.9865,"EPHEMERIS_TYPE":0,"CLASSIFICATION_TYPE":"U","NORAD_CAT_ID":48997,"ELEMENT_SET_NO":999,"REV_AT_EPOCH":21947,"BSTAR":-2.2831e-5,"MEAN_MOTION_DOT":4.0e-8,"MEAN_MOTION_DDOT":0},{"OBJECT_NAME":"ONEWEB-0280","OBJECT_ID":"2021-060AH","EPOCH":"2026-01-14T05:49:51.179808","MEAN_MOTION":13.16593511,"ECCENTRICITY":0.00011415,"INCLINATION":87.9032,"RA_OF_ASC_NODE":259.4273,"ARG_OF_PERICENTER":84.4173,"MEAN_ANOMALY":275.7088,"EPHEMERIS_TYPE":0,"CLASSIFICATION_TYPE":"U","NORAD_CAT_ID":48998,"ELEMENT_SET_NO":999,"REV_AT_EPOCH":21930,"BSTAR":4.6776535e-5,"MEAN_MOTION_DOT":3.1e-7,"MEAN_MOTION_DDOT":0},{"OBJECT_NAME":"ONEWEB-0281","OBJECT_ID":"2021-060AJ","EPOCH":"2026-01-15T02:01:38.722944","MEAN_MOTION":13.16594571,"ECCENTRICITY":0.0001599,"INCLINATION":87.9032,"RA_OF_ASC_NODE":259.2547,"ARG_OF_PERICENTER":76.1994,"MEAN_ANOMALY":283.9315,"EPHEMERIS_TYPE":0,"CLASSIFICATION_TYPE":"U","NORAD_CAT_ID":48999,"ELEMENT_SET_NO":999,"REV_AT_EPOCH":21948,"BSTAR":-0.00038888,"MEAN_MOTION_DOT":-1.36e-6,"MEAN_MOTION_DDOT":0},{"OBJECT_NAME":"ONEWEB-0282","OBJECT_ID":"2021-060AK","EPOCH":"2026-01-15T02:44:57.146784","MEAN_MOTION":13.16594616,"ECCENTRICITY":0.000132,"INCLINATION":87.9029,"RA_OF_ASC_NODE":259.2592,"ARG_OF_PERICENTER":76.2944,"MEAN_ANOMALY":283.8333,"EPHEMERIS_TYPE":0,"CLASSIFICATION_TYPE":"U","NORAD_CAT_ID":49000,"ELEMENT_SET_NO":999,"REV_AT_EPOCH":21946,"BSTAR":0.00025544,"MEAN_MOTION_DOT":1.11e-6,"MEAN_MOTION_DDOT":0},{"OBJECT_NAME":"ONEWEB-0283","OBJECT_ID":"2021-060AL","EPOCH":"2026-01-15T02:28:59.624832","MEAN_MOTION":13.16595249,"ECCENTRICITY":0.0001406,"INCLINATION":87.9027,"RA_OF_ASC_NODE":259.2616,"ARG_OF_PERICENTER":71.6075,"MEAN_ANOMALY":288.5209,"EPHEMERIS_TYPE":0,"CLASSIFICATION_TYPE":"U","NORAD_CAT_ID":49001,"ELEMENT_SET_NO":999,"REV_AT_EPOCH":21947,"BSTAR":0.00012546,"MEAN_MOTION_DOT":6.1e-7,"MEAN_MOTION_DDOT":0},{"OBJECT_NAME":"ONEWEB-0284","OBJECT_ID":"2021-060AM","EPOCH":"2026-01-15T02:19:52.618656","MEAN_MOTION":13.16594368,"ECCENTRICITY":0.0001255,"INCLINATION":87.9032,"RA_OF_ASC_NODE":259.253,"ARG_OF_PERICENTER":91.3222,"MEAN_ANOMALY":268.8052,"EPHEMERIS_TYPE":0,"CLASSIFICATION_TYPE":"U","NORAD_CAT_ID":49002,"ELEMENT_SET_NO":999,"REV_AT_EPOCH":21945,"BSTAR":-3.9524e-6,"MEAN_MOTION_DOT":1.1e-7,"MEAN_MOTION_DDOT":0},{"OBJECT_NAME":"ONEWEB-0285","OBJECT_ID":"2021-075A","EPOCH":"2026-01-14T23:24:27.985824","MEAN_MOTION":13.12442217,"ECCENTRICITY":0.0001735,"INCLINATION":87.8927,"RA_OF_ASC_NODE":21.0801,"ARG_OF_PERICENTER":90.5532,"MEAN_ANOMALY":269.5795,"EPHEMERIS_TYPE":0,"CLASSIFICATION_TYPE":"U","NORAD_CAT_ID":49075,"ELEMENT_SET_NO":999,"REV_AT_EPOCH":21511,"BSTAR":-0.00028561,"MEAN_MOTION_DOT":-9.0e-7,"MEAN_MOTION_DDOT":0},{"OBJECT_NAME":"ONEWEB-0286","OBJECT_ID":"2021-075B","EPOCH":"2026-01-15T00:49:27.587712","MEAN_MOTION":13.1244311,"ECCENTRICITY":0.0001959,"INCLINATION":87.8921,"RA_OF_ASC_NODE":21.0995,"ARG_OF_PERICENTER":90.9612,"MEAN_ANOMALY":269.1741,"EPHEMERIS_TYPE":0,"CLASSIFICATION_TYPE":"U","NORAD_CAT_ID":49076,"ELEMENT_SET_NO":999,"REV_AT_EPOCH":21447,"BSTAR":-0.001125,"MEAN_MOTION_DOT":-3.92e-6,"MEAN_MOTION_DDOT":0},{"OBJECT_NAME":"ONEWEB-0287","OBJECT_ID":"2021-075C","EPOCH":"2026-01-15T00:04:54.526368","MEAN_MOTION":13.17648476,"ECCENTRICITY":0.0002223,"INCLINATION":87.909,"RA_OF_ASC_NODE":36.3139,"ARG_OF_PERICENTER":99.5077,"MEAN_ANOMALY":260.6306,"EPHEMERIS_TYPE":0,"CLASSIFICATION_TYPE":"U","NORAD_CAT_ID":49077,"ELEMENT_SET_NO":999,"REV_AT_EPOCH":21345,"BSTAR":0.00019616,"MEAN_MOTION_DOT":8.9e-7,"MEAN_MOTION_DDOT":0},{"OBJECT_NAME":"ONEWEB-0288","OBJECT_ID":"2021-075D","EPOCH":"2026-01-15T02:05:17.034144","MEAN_MOTION":13.12444161,"ECCENTRICITY":0.0001749,"INCLINATION":87.8927,"RA_OF_ASC_NODE":21.0529,"ARG_OF_PERICENTER":93.0592,"MEAN_ANOMALY":267.0737,"EPHEMERIS_TYPE":0,"CLASSIFICATION_TYPE":"U","NORAD_CAT_ID":49078,"ELEMENT_SET_NO":999,"REV_AT_EPOCH":21510,"BSTAR":0.00083935,"MEAN_MOTION_DOT":3.15e-6,"MEAN_MOTION_DDOT":0},{"OBJECT_NAME":"ONEWEB-0289","OBJECT_ID":"2021-075E","EPOCH":"2026-01-15T02:49:55.191360","MEAN_MOTION":13.17659739,"ECCENTRICITY":0.0001583,"INCLINATION":87.9084,"RA_OF_ASC_NODE":36.3037,"ARG_OF_PERICENTER":102.3,"MEAN_ANOMALY":257.8309,"EPHEMERIS_TYPE":0,"CLASSIFICATION_TYPE":"U","NORAD_CAT_ID":49079,"ELEMENT_SET_NO":999,"REV_AT_EPOCH":21404,"BSTAR":0.0020074,"MEAN_MOTION_DOT":7.92e-6,"MEAN_MOTION_DDOT":0}]
